{
  "type": "FeatureCollection",
  "features": [
    {
      "type": "Feature",
      "properties": {
        "norad_id": 64694,
        "name": "GOSAT-GW (IBUKI GW)",
        "group": "resource",
        "lat": NaN,
        "lon": NaN,
        "alt_km": NaN,
        "timestamp": "2025-12-01T03:03:40.646124+00:00",
        "meta": {
          "OBJECT_NAME": "GOSAT-GW (IBUKI GW)",
          "OBJECT_ID": "2025-141A",
          "EPOCH": "2025-11-30T05:41:32.267328",
          "MEAN_MOTION": 14.67567435,
          "ECCENTRICITY": 0.00014369,
          "INCLINATION": 98.0401,
          "RA_OF_ASC_NODE": 269.9775,
          "ARG_OF_PERICENTER": 82.921,
          "MEAN_ANOMALY": 277.2158,
          "EPHEMERIS_TYPE": 0,
          "CLASSIFICATION_TYPE": "U",
          "NORAD_CAT_ID": 64694,
          "ELEMENT_SET_NO": 999,
          "REV_AT_EPOCH": 2266,
          "BSTAR": 0.00019762357,
          "MEAN_MOTION_DOT": 1.074e-05,
          "MEAN_MOTION_DDOT": 0
        }
      },
      "geometry": {
        "type": "Point",
        "coordinates": [
          NaN,
          NaN
        ]
      }
    },
    {
      "type": "Feature",
      "properties": {
        "norad_id": 64876,
        "name": "IONOSFERA-M 3",
        "group": "resource",
        "lat": NaN,
        "lon": NaN,
        "alt_km": NaN,
        "timestamp": "2025-12-01T03:03:40.646149+00:00",
        "meta": {
          "OBJECT_NAME": "IONOSFERA-M 3",
          "OBJECT_ID": "2025-155A",
          "EPOCH": "2025-11-30T21:17:43.083744",
          "MEAN_MOTION": 14.21436261,
          "ECCENTRICITY": 0.0002416,
          "INCLINATION": 98.5768,
          "RA_OF_ASC_NODE": 297.0899,
          "ARG_OF_PERICENTER": 78.4024,
          "MEAN_ANOMALY": 281.7425,
          "EPHEMERIS_TYPE": 0,
          "CLASSIFICATION_TYPE": "U",
          "NORAD_CAT_ID": 64876,
          "ELEMENT_SET_NO": 999,
          "REV_AT_EPOCH": 1823,
          "BSTAR": 6.4057e-05,
          "MEAN_MOTION_DOT": 9.7e-07,
          "MEAN_MOTION_DDOT": 0
        }
      },
      "geometry": {
        "type": "Point",
        "coordinates": [
          NaN,
          NaN
        ]
      }
    },
    {
      "type": "Feature",
      "properties": {
        "norad_id": 64877,
        "name": "IONOSFERA-M 4",
        "group": "resource",
        "lat": NaN,
        "lon": NaN,
        "alt_km": NaN,
        "timestamp": "2025-12-01T03:03:40.646156+00:00",
        "meta": {
          "OBJECT_NAME": "IONOSFERA-M 4",
          "OBJECT_ID": "2025-155B",
          "EPOCH": "2025-11-30T20:26:51.743328",
          "MEAN_MOTION": 14.21437249,
          "ECCENTRICITY": 0.0001773,
          "INCLINATION": 98.5764,
          "RA_OF_ASC_NODE": 296.9753,
          "ARG_OF_PERICENTER": 75.7189,
          "MEAN_ANOMALY": 284.4185,
          "EPHEMERIS_TYPE": 0,
          "CLASSIFICATION_TYPE": "U",
          "NORAD_CAT_ID": 64877,
          "ELEMENT_SET_NO": 999,
          "REV_AT_EPOCH": 1822,
          "BSTAR": 6.7775e-05,
          "MEAN_MOTION_DOT": 1.05e-06,
          "MEAN_MOTION_DDOT": 0
        }
      },
      "geometry": {
        "type": "Point",
        "coordinates": [
          NaN,
          NaN
        ]
      }
    },
    {
      "type": "Feature",
      "properties": {
        "norad_id": 64899,
        "name": "MICROCARB",
        "group": "resource",
        "lat": NaN,
        "lon": NaN,
        "alt_km": NaN,
        "timestamp": "2025-12-01T03:03:40.646165+00:00",
        "meta": {
          "OBJECT_NAME": "MICROCARB",
          "OBJECT_ID": "2025-156A",
          "EPOCH": "2025-11-30T18:07:29.710272",
          "MEAN_MOTION": 14.72024515,
          "ECCENTRICITY": 0.0016353,
          "INCLINATION": 98.0037,
          "RA_OF_ASC_NODE": 50.2924,
          "ARG_OF_PERICENTER": 182.0513,
          "MEAN_ANOMALY": 178.063,
          "EPHEMERIS_TYPE": 0,
          "CLASSIFICATION_TYPE": "U",
          "NORAD_CAT_ID": 64899,
          "ELEMENT_SET_NO": 999,
          "REV_AT_EPOCH": 1877,
          "BSTAR": 0.00013289,
          "MEAN_MOTION_DOT": 7.86e-06,
          "MEAN_MOTION_DDOT": 0
        }
      },
      "geometry": {
        "type": "Point",
        "coordinates": [
          NaN,
          NaN
        ]
      }
    },
    {
      "type": "Feature",
      "properties": {
        "norad_id": 64900,
        "name": "CO3D 3",
        "group": "resource",
        "lat": NaN,
        "lon": NaN,
        "alt_km": NaN,
        "timestamp": "2025-12-01T03:03:40.646171+00:00",
        "meta": {
          "OBJECT_NAME": "CO3D 3",
          "OBJECT_ID": "2025-156B",
          "EPOCH": "2025-11-29T13:08:11.122944",
          "MEAN_MOTION": 15.11495615,
          "ECCENTRICITY": 0.01368669,
          "INCLINATION": 97.6723,
          "RA_OF_ASC_NODE": 49.0485,
          "ARG_OF_PERICENTER": 160.1625,
          "MEAN_ANOMALY": 200.5002,
          "EPHEMERIS_TYPE": 0,
          "CLASSIFICATION_TYPE": "U",
          "NORAD_CAT_ID": 64900,
          "ELEMENT_SET_NO": 999,
          "REV_AT_EPOCH": 1920,
          "BSTAR": 0.00046350794,
          "MEAN_MOTION_DOT": 9.779e-05,
          "MEAN_MOTION_DDOT": 0
        }
      },
      "geometry": {
        "type": "Point",
        "coordinates": [
          NaN,
          NaN
        ]
      }
    },
    {
      "type": "Feature",
      "properties": {
        "norad_id": 64901,
        "name": "CO3D 4",
        "group": "resource",
        "lat": NaN,
        "lon": NaN,
        "alt_km": NaN,
        "timestamp": "2025-12-01T03:03:40.646176+00:00",
        "meta": {
          "OBJECT_NAME": "CO3D 4",
          "OBJECT_ID": "2025-156C",
          "EPOCH": "2025-11-30T20:43:46.450848",
          "MEAN_MOTION": 15.20205855,
          "ECCENTRICITY": 0.0001103,
          "INCLINATION": 97.4351,
          "RA_OF_ASC_NODE": 51.4012,
          "ARG_OF_PERICENTER": 245.2947,
          "MEAN_ANOMALY": 114.8173,
          "EPHEMERIS_TYPE": 0,
          "CLASSIFICATION_TYPE": "U",
          "NORAD_CAT_ID": 64901,
          "ELEMENT_SET_NO": 999,
          "REV_AT_EPOCH": 1940,
          "BSTAR": 0.0003113,
          "MEAN_MOTION_DOT": 6.678e-05,
          "MEAN_MOTION_DDOT": 0
        }
      },
      "geometry": {
        "type": "Point",
        "coordinates": [
          NaN,
          NaN
        ]
      }
    },
    {
      "type": "Feature",
      "properties": {
        "norad_id": 64902,
        "name": "CO3D 2",
        "group": "resource",
        "lat": NaN,
        "lon": NaN,
        "alt_km": NaN,
        "timestamp": "2025-12-01T03:03:40.646182+00:00",
        "meta": {
          "OBJECT_NAME": "CO3D 2",
          "OBJECT_ID": "2025-156D",
          "EPOCH": "2025-11-30T19:55:45.690816",
          "MEAN_MOTION": 15.20197343,
          "ECCENTRICITY": 9.13e-05,
          "INCLINATION": 97.435,
          "RA_OF_ASC_NODE": 51.2667,
          "ARG_OF_PERICENTER": 115.4606,
          "MEAN_ANOMALY": 244.6724,
          "EPHEMERIS_TYPE": 0,
          "CLASSIFICATION_TYPE": "U",
          "NORAD_CAT_ID": 64902,
          "ELEMENT_SET_NO": 999,
          "REV_AT_EPOCH": 1939,
          "BSTAR": 0.00033751,
          "MEAN_MOTION_DOT": 7.245e-05,
          "MEAN_MOTION_DDOT": 0
        }
      },
      "geometry": {
        "type": "Point",
        "coordinates": [
          NaN,
          NaN
        ]
      }
    },
    {
      "type": "Feature",
      "properties": {
        "norad_id": 64903,
        "name": "CO3D 1",
        "group": "resource",
        "lat": NaN,
        "lon": NaN,
        "alt_km": NaN,
        "timestamp": "2025-12-01T03:03:40.646187+00:00",
        "meta": {
          "OBJECT_NAME": "CO3D 1",
          "OBJECT_ID": "2025-156E",
          "EPOCH": "2025-11-30T19:55:58.836576",
          "MEAN_MOTION": 15.20196329,
          "ECCENTRICITY": 9.52e-05,
          "INCLINATION": 97.4349,
          "RA_OF_ASC_NODE": 51.2668,
          "ARG_OF_PERICENTER": 120.2885,
          "MEAN_ANOMALY": 239.8444,
          "EPHEMERIS_TYPE": 0,
          "CLASSIFICATION_TYPE": "U",
          "NORAD_CAT_ID": 64903,
          "ELEMENT_SET_NO": 999,
          "REV_AT_EPOCH": 1939,
          "BSTAR": 0.00035917,
          "MEAN_MOTION_DOT": 7.714e-05,
          "MEAN_MOTION_DDOT": 0
        }
      },
      "geometry": {
        "type": "Point",
        "coordinates": [
          NaN,
          NaN
        ]
      }
    }
  ]
}