GOSAT-GW (IBUKI GW)     
1 64694U 25141A   25334.23717902  .00001074  00000+0  19762-3 0  9999
2 64694  98.0401 269.9775 0001436  82.9210 277.2158 14.67567435 22660
IONOSFERA-M 3           
1 64876U 25155A   25334.88730421  .00000097  00000+0  64057-4 0  9990
2 64876  98.5768 297.0899 0002416  78.4024 281.7425 14.21436261 18231
IONOSFERA-M 4           
1 64877U 25155B   25334.85198777  .00000105  00000+0  67775-4 0  9990
2 64877  98.5764 296.9753 0001773  75.7189 284.4185 14.21437249 18221
MICROCARB               
1 64899U 25156A   25334.75520498  .00000786  00000+0  13289-3 0  9998
2 64899  98.0037  50.2924 0016353 182.0513 178.0630 14.72024515 18774
CO3D 3                  
1 64900U 25156B   25333.54735096  .00009779  00000+0  46351-3 0  9996
2 64900  97.6723  49.0485 0136866 160.1625 200.5002 15.11495615 19205
CO3D 4                  
1 64901U 25156C   25334.86373207  .00006678  00000+0  31130-3 0  9999
2 64901  97.4351  51.4012 0001103 245.2947 114.8173 15.20205855 19404
CO3D 2                  
1 64902U 25156D   25334.83038994  .00007245  00000+0  33751-3 0  9990
2 64902  97.4350  51.2667 0000913 115.4606 244.6724 15.20197343 19390
CO3D 1                  
1 64903U 25156E   25334.83054209  .00007714  00000+0  35917-3 0  9995
2 64903  97.4349  51.2668 0000952 120.2885 239.8444 15.20196329 19394
